NORAD_CAT_ID,OBJECT_NAME,OBJECT_TYPE,EPOCH,MEAN_MOTION,ECCENTRICITY,INCLINATION,RA_OF_ASC_NODE,ARG_OF_PERICENTER,MEAN_ANOMALY,BSTAR,MEAN_MOTION_DOT,MEAN_MOTION_DDOT,TLE_LINE0,TLE_LINE1,TLE_LINE2,SEMIMAJOR_AXIS,PERIOD,APOGEE,PERIGEE,DECAYED
53706.0,STARLINK-4716,PAYLOAD,2024-06-04 10:28:47,15.08844984,0.0001758,53.2178,251.857,83.0978,277.0214,8.0867e-05,9.99e-06,0.0,0 STARLINK-4716,1 53706U 22107G   24156.43665792  .00000999  00000-0  80867-4 0  9993,2 53706  53.2178 251.8570 0001758  83.0978 277.0214 15.08844984 96990,6917.865,95.437,540.946,538.514,0.0
53706.0,STARLINK-4716,PAYLOAD,2024-06-04 13:39:33,15.08841547,9.47e-05,53.2173,251.2662,100.393,259.7169,8.0917e-05,1e-05,0.0,0 STARLINK-4716,1 53706U 22107G   24156.56913772  .00001000  00000-0  80917-4 0  9991,2 53706  53.2173 251.2662 0000947 100.3930 259.7169 15.08841547 97765,6917.876,95.437,540.396,539.086,0.0
53706.0,STARLINK-4716,PAYLOAD,2024-06-05 11:54:57,15.08841715,0.0001443,53.2171,247.0995,92.2184,267.8973,-1.8175e-05,-5.77e-06,0.0,0 STARLINK-4716,1 53706U 22107G   24157.49650105 -.00000577  00000-0 -18175-4 0  9999,2 53706  53.2171 247.0995 0001443  92.2184 267.8973 15.08841715 97150,6917.875,95.437,540.738,538.742,0.0
53706.0,STARLINK-4716,PAYLOAD,2024-06-05 15:05:43,15.08843192,0.0001528,53.2169,246.5049,91.9719,268.1448,-4.1311e-06,-3.54e-06,0.0,0 STARLINK-4716,1 53706U 22107G   24157.62897979 -.00000354  00000-0 -41311-5 0  9998,2 53706  53.2169 246.5049 0001528  91.9719 268.1448 15.08843192 97922,6917.871,95.437,540.793,538.679,0.0
53706.0,STARLINK-4716,PAYLOAD,2024-06-06 11:45:44,15.08832896,0.0001084,53.2146,242.6378,78.2282,281.8831,4.5675e-05,4.39e-06,0.0,0 STARLINK-4716,1 53706U 22107G   24158.49010167  .00000439  00000-0  45675-4 0  9998,2 53706  53.2146 242.6378 0001084  78.2282 281.8831 15.08832896 98051,6917.902,95.438,540.517,539.017,0.0
53706.0,STARLINK-4716,PAYLOAD,2024-06-07 11:36:31,15.08839777,0.0001209,53.2153,238.1778,85.8489,274.2641,0.00015849,2.235e-05,0.0,0 STARLINK-4716,1 53706U 22107G   24159.48370023  .00002235  00000-0  15849-3 0  9993,2 53706  53.2153 238.1778 0001209  85.8489 274.2641 15.08839777 98202,6917.881,95.438,540.582,538.91,0.0
53706.0,STARLINK-4716,PAYLOAD,2024-06-08 11:27:18,15.08846239,0.0001514,53.2172,233.7153,102.1357,257.9805,0.00042529,6.488e-05,0.0,0 STARLINK-4716,1 53706U 22107G   24160.47729814  .00006488  00000-0  42529-3 0  9999,2 53706  53.2172 233.7153 0001514 102.1357 257.9805 15.08846239 98354,6917.861,95.437,540.774,538.679,0.0
53706.0,STARLINK-4716,PAYLOAD,2024-06-09 11:18:06,15.0883129,0.0001323,53.2163,229.2568,86.195,273.9193,-8.0448e-05,-1.568e-05,0.0,0 STARLINK-4716,1 53706U 22107G   24161.47090792 -.00001568  00000-0 -80448-4 0  9995,2 53706  53.2163 229.2568 0001323  86.1950 273.9193 15.08831290 97754,6917.907,95.438,540.687,538.857,0.0
53706.0,STARLINK-4716,PAYLOAD,2024-06-10 11:08:53,15.08845622,0.0001095,53.2159,224.7986,100.1518,259.9598,0.00020398,2.96e-05,0.0,0 STARLINK-4716,1 53706U 22107G   24162.46450292  .00002960  00000-0  20398-3 0  9992,2 53706  53.2159 224.7986 0001095 100.1518 259.9598 15.08845622 97900,6917.863,95.437,540.486,538.971,0.0
53706.0,STARLINK-4716,PAYLOAD,2024-06-10 20:41:11,15.08846264,0.000122,53.2159,223.0145,99.8852,260.2278,0.00011013,1.466e-05,0.0,0 STARLINK-4716,1 53706U 22107G   24162.86194259  .00001466  00000-0  11013-3 0  9998,2 53706  53.2159 223.0145 0001220  99.8852 260.2278 15.08846264 98717,6917.861,95.437,540.57,538.882,0.0
53706.0,STARLINK-4716,PAYLOAD,2024-06-11 03:02:44,15.08835595,0.0001301,53.2163,221.8269,105.4456,254.668,0.00037856,5.741e-05,0.0,0 STARLINK-4716,1 53706U 22107G   24163.12690937  .00005741  00000-0  37856-3 0  9995,2 53706  53.2163 221.8269 0001301 105.4456 254.6680 15.08835595 98000,6917.894,95.438,540.659,538.859,0.0
53706.0,STARLINK-4716,PAYLOAD,2024-06-11 10:59:40,15.08833695,0.0001459,53.217,220.3393,112.3978,247.7169,0.00012756,1.742e-05,0.0,0 STARLINK-4716,1 53706U 22107G   24163.45811092  .00001742  00000-0  12756-3 0  9997,2 53706  53.2170 220.3393 0001459 112.3978 247.7169 15.08833695 98802,6917.9,95.438,540.774,538.755,0.0
53706.0,STARLINK-4716,PAYLOAD,2024-06-12 02:53:32,15.08841087,0.0001771,53.2186,217.3654,112.6709,247.447,-1.6463e-05,-5.5e-06,0.0,0 STARLINK-4716,1 53706U 22107G   24164.12051319 -.00000550  00000-0 -16463-4 0  9998,2 53706  53.2186 217.3654 0001771 112.6709 247.4470 15.08841087 98151,6917.877,95.437,540.967,538.517,0.0
53706.0,STARLINK-4716,PAYLOAD,2024-06-12 10:50:28,15.08839284,0.0001549,53.2186,215.8786,110.2219,249.894,8.3891e-06,-1.54e-06,0.0,0 STARLINK-4716,1 53706U 22107G   24164.45171327 -.00000154  00000-0  83891-5 0  9995,2 53706  53.2186 215.8786 0001549 110.2219 249.8940 15.08839284 98955,6917.883,95.438,540.819,538.676,0.0
53706.0,STARLINK-4716,PAYLOAD,2024-06-13 10:41:14,15.08842564,0.0001302,53.2178,211.4174,91.5107,268.6034,0.00011706,1.576e-05,0.0,0 STARLINK-4716,1 53706U 22107G   24165.44530897  .00001576  00000-0  11706-3 0  9998,2 53706  53.2178 211.4174 0001302  91.5107 268.6034 15.08842564 98355,6917.873,95.437,540.638,538.837,0.0
53706.0,STARLINK-4716,PAYLOAD,2024-06-14 12:07:25,15.08838928,0.0001169,53.2166,206.6575,87.2335,272.8791,3.9701e-05,3.44e-06,0.0,0 STARLINK-4716,1 53706U 22107G   24166.50515461  .00000344  00000-0  39701-4 0  9994,2 53706  53.2166 206.6575 0001169  87.2335 272.8791 15.08838928 99266,6917.884,95.438,540.557,538.94,0.0
53706.0,STARLINK-4716,PAYLOAD,2024-06-14 20:04:20,15.08842914,0.0001191,53.2167,205.1717,84.9101,275.2027,6.2409e-05,7.06e-06,0.0,0 STARLINK-4716,1 53706U 22107G   24166.83635135  .00000706  00000-0  62409-4 0  9994,2 53706  53.2167 205.1717 0001191  84.9101 275.2027 15.08842914 99314,6917.871,95.437,540.56,538.913,0.0
53706.0,STARLINK-4716,PAYLOAD,2024-06-15 11:58:11,15.08850218,0.000117,53.2164,202.1972,86.7608,273.3518,8.754e-05,1.106e-05,0.0,0 STARLINK-4716,1 53706U 22107G   24167.49874374  .00001106  00000-0  87540-4 0  9995,2 53706  53.2164 202.1972 0001170  86.7608 273.3518 15.08850218 99411,6917.849,95.437,540.524,538.905,0.0
53706.0,STARLINK-4716,PAYLOAD,2024-06-15 19:55:07,15.08845105,0.0001146,53.2166,200.7095,88.5967,271.5156,6.8453e-05,8.02e-06,0.0,0 STARLINK-4716,1 53706U 22107G   24167.82994594  .00000802  00000-0  68453-4 0  9993,2 53706  53.2166 200.7095 0001146  88.5967 271.5156 15.08845105 99466,6917.865,95.437,540.523,538.937,0.0
53706.0,STARLINK-4716,PAYLOAD,2024-06-16 11:48:59,15.08840082,0.0001225,53.2166,197.7366,89.9719,270.1414,4.8125e-05,4.78e-06,0.0,0 STARLINK-4716,1 53706U 22107G   24168.49235021  .00000478  00000-0  48125-4 0  9993,2 53706  53.2166 197.7366 0001225  89.9719 270.1414 15.08840082 99562,6917.88,95.438,540.593,538.898,0.0
53706.0,STARLINK-4716,PAYLOAD,2024-06-17 11:39:46,15.08838342,0.0001302,53.2169,193.2764,90.4705,269.6436,-3.3134e-05,-8.15e-06,0.0,0 STARLINK-4716,1 53706U 22107G   24169.48595311 -.00000815  00000-0 -33134-4 0  9995,2 53706  53.2169 193.2764 0001302  90.4705 269.6436 15.08838342 99716,6917.885,95.438,540.651,538.85,0.0
53706.0,STARLINK-4716,PAYLOAD,2024-06-18 08:19:46,15.08839219,0.0001263,53.2168,189.4111,88.8193,271.2944,5.8581e-05,6.45e-06,0.0,0 STARLINK-4716,1 53706U 22107G   24170.34707025  .00000645  00000-0  58581-4 0  9991,2 53706  53.2168 189.4111 0001263  88.8193 271.2944 15.08839219 99847,6917.883,95.438,540.622,538.874,0.0
53706.0,STARLINK-4716,PAYLOAD,2024-06-18 17:52:05,15.08836787,0.0001214,53.2164,187.6268,86.1211,273.992,2.5984e-05,1.26e-06,0.0,0 STARLINK-4716,1 53706U 22107G   24170.74451308  .00000126  00000-0  25984-4 0  9990,2 53706  53.2164 187.6268 0001214  86.1211 273.9920 15.08836787 99158,6917.89,95.438,540.595,538.915,0.0
53706.0,STARLINK-4716,PAYLOAD,2024-06-19 09:45:58,15.08829798,0.0001336,53.2175,184.6545,90.1091,270.0054,-1.0026e-05,-4.47e-06,0.0,0 STARLINK-4716,1 53706U 22107G   24171.40692224 -.00000447  00000-0 -10026-4 0  9997,2 53706  53.2175 184.6545 0001336  90.1091 270.0054 15.08829798 99252,6917.912,95.438,540.701,538.852,0.0
53706.0,STARLINK-4716,PAYLOAD,2024-06-19 17:42:53,15.0883277,0.0001345,53.2176,183.1678,90.4861,269.6285,1.6447e-06,-2.62e-06,0.0,0 STARLINK-4716,1 53706U 22107G   24171.73812156 -.00000262  00000-0  16447-5 0  9999,2 53706  53.2176 183.1678 0001345  90.4861 269.6285 15.08832770100057,6917.902,95.438,540.698,538.837,0.0
53706.0,STARLINK-4716,PAYLOAD,2024-06-20 04:50:35,15.08835883,0.0001357,53.2174,181.0862,89.6373,270.4774,2.4788e-05,1.07e-06,0.0,0 STARLINK-4716,1 53706U 22107G   24172.20180038  .00000107  00000-0  24788-4 0  9992,2 53706  53.2174 181.0862 0001357  89.6373 270.4774 15.08835883 99371,6917.893,95.438,540.697,538.819,0.0
53706.0,STARLINK-4716,PAYLOAD,2024-06-20 09:36:45,15.088359,0.0001351,53.2172,180.1941,89.4614,270.6533,2.4254e-05,9.8e-07,0.0,0 STARLINK-4716,1 53706U 22107G   24172.40052089  .00000098  00000-0  24254-4 0  9995,2 53706  53.2172 180.1941 0001351  89.4614 270.6533 15.08835900100151,6917.893,95.438,540.693,538.823,0.0
53706.0,STARLINK-4716,PAYLOAD,2024-06-21 09:27:31,15.08839897,0.0001289,53.2166,175.7326,88.9606,271.1533,0.00010542,1.39e-05,0.0,0 STARLINK-4716,1 53706U 22107G   24173.39411736  .00001390  00000-0  10542-3 0  9992,2 53706  53.2166 175.7326 0001289  88.9606 271.1533 15.08839897 99552,6917.881,95.438,540.637,538.854,0.0
53706.0,STARLINK-4716,PAYLOAD,2024-06-22 04:32:09,15.08837407,0.0001357,53.2169,172.1639,88.5963,271.5185,3.3425e-05,2.44e-06,0.0,0 STARLINK-4716,1 53706U 22107G   24174.18900226  .00000244  00000-0  33425-4 0  9990,2 53706  53.2169 172.1639 0001357  88.5963 271.5185 15.08837407 99676,6917.888,95.438,540.692,538.815,0.0
53706.0,STARLINK-4716,PAYLOAD,2024-06-22 09:18:19,15.08839552,0.0001369,53.2169,171.2718,88.533,271.5819,4.0966e-05,3.64e-06,0.0,0 STARLINK-4716,1 53706U 22107G   24174.38772080  .00000364  00000-0  40966-4 0  9998,2 53706  53.2169 171.2718 0001369  88.5330 271.5819 15.08839552100451,6917.882,95.438,540.694,538.8,0.0
